CCSDS_OMM_VERS = 2.0
CREATION_DATE  = 
ORIGINATOR     = 

OBJECT_NAME    = HTV-X1
OBJECT_ID      = 2025-241A
CENTER_NAME    = EARTH
REF_FRAME      = TEME
TIME_SYSTEM    = UTC
MEAN_ELEMENT_THEORY = SGP/SGP4

EPOCH          = 2026-03-14T08:15:41.718240
MEAN_MOTION    = 15.22910005
ECCENTRICITY   = .00057324
INCLINATION    = 51.6357
RA_OF_ASC_NODE = 50.7100
ARG_OF_PERICENTER = 187.3443
MEAN_ANOMALY   = 172.7451

EPHEMERIS_TYPE = 0
CLASSIFICATION_TYPE = U
NORAD_CAT_ID   = 66174
ELEMENT_SET_NO = 999
REV_AT_EPOCH   = 2166
BSTAR          = .5679389E-3
MEAN_MOTION_DOT = .13198E-3
MEAN_MOTION_DDOT = 0

CCSDS_OMM_VERS = 2.0
CREATION_DATE  = 
ORIGINATOR     = 

OBJECT_NAME    = SZ-21 MODULE
OBJECT_ID      = 2025-246C
CENTER_NAME    = EARTH
REF_FRAME      = TEME
TIME_SYSTEM    = UTC
MEAN_ELEMENT_THEORY = SGP/SGP4

EPOCH          = 2026-03-20T04:39:31.036608
MEAN_MOTION    = 15.69318212
ECCENTRICITY   = .00003768
INCLINATION    = 41.4734
RA_OF_ASC_NODE = 138.6579
ARG_OF_PERICENTER = 257.1443
MEAN_ANOMALY   = 102.9357

EPHEMERIS_TYPE = 0
CLASSIFICATION_TYPE = U
NORAD_CAT_ID   = 66515
ELEMENT_SET_NO = 999
REV_AT_EPOCH   = 1972
BSTAR          = .21817617E-3
MEAN_MOTION_DOT = .26007E-3
MEAN_MOTION_DDOT = 0

CCSDS_OMM_VERS = 2.0
CREATION_DATE  = 
ORIGINATOR     = 

OBJECT_NAME    = SHENZHOU-22
OBJECT_ID      = 2025-272A
CENTER_NAME    = EARTH
REF_FRAME      = TEME
TIME_SYSTEM    = UTC
MEAN_ELEMENT_THEORY = SGP/SGP4

EPOCH          = 2026-03-20T09:36:17.624736
MEAN_MOTION    = 15.61026164
ECCENTRICITY   = .0005872
INCLINATION    = 41.4699
RA_OF_ASC_NODE = 142.9629
ARG_OF_PERICENTER = 346.1089
MEAN_ANOMALY   = 13.9588

EPHEMERIS_TYPE = 0
CLASSIFICATION_TYPE = U
NORAD_CAT_ID   = 66645
ELEMENT_SET_NO = 999
REV_AT_EPOCH   = 27943
BSTAR          = .20839E-3
MEAN_MOTION_DOT = .1774E-3
MEAN_MOTION_DDOT = 0

CCSDS_OMM_VERS = 2.0
CREATION_DATE  = 
ORIGINATOR     = 

OBJECT_NAME    = SOYUZ-MS 28
OBJECT_ID      = 2025-275A
CENTER_NAME    = EARTH
REF_FRAME      = TEME
TIME_SYSTEM    = UTC
MEAN_ELEMENT_THEORY = SGP/SGP4

EPOCH          = 2026-03-20T06:59:30.191424
MEAN_MOTION    = 15.48390544
ECCENTRICITY   = .0006354
INCLINATION    = 51.6345
RA_OF_ASC_NODE = 19.9496
ARG_OF_PERICENTER = 211.1385
MEAN_ANOMALY   = 148.9227

EPHEMERIS_TYPE = 0
CLASSIFICATION_TYPE = U
NORAD_CAT_ID   = 66664
ELEMENT_SET_NO = 999
REV_AT_EPOCH   = 55801
BSTAR          = .16183E-3
MEAN_MOTION_DOT = .8293E-4
MEAN_MOTION_DDOT = 0

CCSDS_OMM_VERS = 2.0
CREATION_DATE  = 
ORIGINATOR     = 

OBJECT_NAME    = DUPLEX
OBJECT_ID      = 1998-067XS
CENTER_NAME    = EARTH
REF_FRAME      = TEME
TIME_SYSTEM    = UTC
MEAN_ELEMENT_THEORY = SGP/SGP4

EPOCH          = 2026-03-20T05:50:42.444384
MEAN_MOTION    = 15.56853092
ECCENTRICITY   = .0002978
INCLINATION    = 51.6306
RA_OF_ASC_NODE = 16.6351
ARG_OF_PERICENTER = 156.4039
MEAN_ANOMALY   = 203.7090

EPHEMERIS_TYPE = 0
CLASSIFICATION_TYPE = U
NORAD_CAT_ID   = 66906
ELEMENT_SET_NO = 999
REV_AT_EPOCH   = 1677
BSTAR          = .30375E-3
MEAN_MOTION_DOT = .218E-3
MEAN_MOTION_DDOT = 0

CCSDS_OMM_VERS = 2.0
CREATION_DATE  = 
ORIGINATOR     = 

OBJECT_NAME    = ISS OBJECT XT
OBJECT_ID      = 1998-067XT
CENTER_NAME    = EARTH
REF_FRAME      = TEME
TIME_SYSTEM    = UTC
MEAN_ELEMENT_THEORY = SGP/SGP4

EPOCH          = 2026-03-20T12:33:34.017696
MEAN_MOTION    = 15.72768036
ECCENTRICITY   = .0005224
INCLINATION    = 51.6258
RA_OF_ASC_NODE = 10.2274
ARG_OF_PERICENTER = 150.1907
MEAN_ANOMALY   = 209.9390

EPHEMERIS_TYPE = 0
CLASSIFICATION_TYPE = U
NORAD_CAT_ID   = 66907
ELEMENT_SET_NO = 999
REV_AT_EPOCH   = 1688
BSTAR          = .12285E-2
MEAN_MOTION_DOT = .172561E-2
MEAN_MOTION_DDOT = 0

CCSDS_OMM_VERS = 2.0
CREATION_DATE  = 
ORIGINATOR     = 

OBJECT_NAME    = ISS OBJECT XU
OBJECT_ID      = 1998-067XU
CENTER_NAME    = EARTH
REF_FRAME      = TEME
TIME_SYSTEM    = UTC
MEAN_ELEMENT_THEORY = SGP/SGP4

EPOCH          = 2026-03-20T12:29:36.968064
MEAN_MOTION    = 15.72903256
ECCENTRICITY   = .0005435
INCLINATION    = 51.6251
RA_OF_ASC_NODE = 10.2051
ARG_OF_PERICENTER = 149.9319
MEAN_ANOMALY   = 210.1992

EPHEMERIS_TYPE = 0
CLASSIFICATION_TYPE = U
NORAD_CAT_ID   = 66908
ELEMENT_SET_NO = 999
REV_AT_EPOCH   = 1688
BSTAR          = .1207E-2
MEAN_MOTION_DOT = .170482E-2
MEAN_MOTION_DDOT = 0

CCSDS_OMM_VERS = 2.0
CREATION_DATE  = 
ORIGINATOR     = 

OBJECT_NAME    = SILVERSAT
OBJECT_ID      = 1998-067XV
CENTER_NAME    = EARTH
REF_FRAME      = TEME
TIME_SYSTEM    = UTC
MEAN_ELEMENT_THEORY = SGP/SGP4

EPOCH          = 2026-03-20T04:21:22.683456
MEAN_MOTION    = 15.76718316
ECCENTRICITY   = .00058723
INCLINATION    = 51.6236
RA_OF_ASC_NODE = 10.9348
ARG_OF_PERICENTER = 151.9613
MEAN_ANOMALY   = 208.1704

EPHEMERIS_TYPE = 0
CLASSIFICATION_TYPE = U
NORAD_CAT_ID   = 66909
ELEMENT_SET_NO = 999
REV_AT_EPOCH   = 1684
BSTAR          = .10695302E-2
MEAN_MOTION_DOT = .178475E-2
MEAN_MOTION_DDOT = 0

CCSDS_OMM_VERS = 2.0
CREATION_DATE  = 
ORIGINATOR     = 

OBJECT_NAME    = ISS OBJECT XW
OBJECT_ID      = 1998-067XW
CENTER_NAME    = EARTH
REF_FRAME      = TEME
TIME_SYSTEM    = UTC
MEAN_ELEMENT_THEORY = SGP/SGP4

EPOCH          = 2026-03-20T04:56:42.861696
MEAN_MOTION    = 15.71670531
ECCENTRICITY   = .00058073
INCLINATION    = 51.6255
RA_OF_ASC_NODE = 11.8505
ARG_OF_PERICENTER = 150.0745
MEAN_ANOMALY   = 210.0586

EPHEMERIS_TYPE = 0
CLASSIFICATION_TYPE = U
NORAD_CAT_ID   = 66910
ELEMENT_SET_NO = 999
REV_AT_EPOCH   = 1683
BSTAR          = .89058785E-3
MEAN_MOTION_DOT = .118472E-2
MEAN_MOTION_DDOT = 0

CCSDS_OMM_VERS = 2.0
CREATION_DATE  = 
ORIGINATOR     = 

OBJECT_NAME    = ISS OBJECT XX
OBJECT_ID      = 1998-067XX
CENTER_NAME    = EARTH
REF_FRAME      = TEME
TIME_SYSTEM    = UTC
MEAN_ELEMENT_THEORY = SGP/SGP4

EPOCH          = 2026-03-20T00:38:23.056800
MEAN_MOTION    = 15.81175637
ECCENTRICITY   = .00075405
INCLINATION    = 51.6213
RA_OF_ASC_NODE = 10.6240
ARG_OF_PERICENTER = 154.6748
MEAN_ANOMALY   = 205.4625

EPHEMERIS_TYPE = 0
CLASSIFICATION_TYPE = U
NORAD_CAT_ID   = 66911
ELEMENT_SET_NO = 999
REV_AT_EPOCH   = 1682
BSTAR          = .12858182E-2
MEAN_MOTION_DOT = .265567E-2
MEAN_MOTION_DDOT = 0

CCSDS_OMM_VERS = 2.0
CREATION_DATE  = 
ORIGINATOR     = 

OBJECT_NAME    = ISS OBJECT XY
OBJECT_ID      = 1998-067XY
CENTER_NAME    = EARTH
REF_FRAME      = TEME
TIME_SYSTEM    = UTC
MEAN_ELEMENT_THEORY = SGP/SGP4

EPOCH          = 2026-03-20T04:24:03.870432
MEAN_MOTION    = 15.65652756
ECCENTRICITY   = .00038345
INCLINATION    = 51.6283
RA_OF_ASC_NODE = 13.9735
ARG_OF_PERICENTER = 151.9435
MEAN_ANOMALY   = 208.1768

EPHEMERIS_TYPE = 0
CLASSIFICATION_TYPE = U
NORAD_CAT_ID   = 66912
ELEMENT_SET_NO = 999
REV_AT_EPOCH   = 1679
BSTAR          = .68564431E-3
MEAN_MOTION_DOT = .7058E-3
MEAN_MOTION_DDOT = 0

CCSDS_OMM_VERS = 2.0
CREATION_DATE  = 
ORIGINATOR     = 

OBJECT_NAME    = KNACKSAT-2
OBJECT_ID      = 1998-067XZ
CENTER_NAME    = EARTH
REF_FRAME      = TEME
TIME_SYSTEM    = UTC
MEAN_ELEMENT_THEORY = SGP/SGP4

EPOCH          = 2026-03-20T13:02:11.756832
MEAN_MOTION    = 15.52670292
ECCENTRICITY   = .0009741
INCLINATION    = 51.6326
RA_OF_ASC_NODE = 17.8843
ARG_OF_PERICENTER = 224.4423
MEAN_ANOMALY   = 135.5786

EPHEMERIS_TYPE = 0
CLASSIFICATION_TYPE = U
NORAD_CAT_ID   = 67683
ELEMENT_SET_NO = 999
REV_AT_EPOCH   = 647
BSTAR          = .6246E-3
MEAN_MOTION_DOT = .39005E-3
MEAN_MOTION_DDOT = 0

